{
  "type": "FeatureCollection",
  "properties": {
    "name": "Circuit de Monaco",
    "location": "Monte Carlo, Monaco",
    "length": 3337,
    "turns": 19,
    "lap_record": "1:12.909",
    "lap_record_holder": "Lewis Hamilton"
  },
  "features": [
    {
      "type": "Feature",
      "properties": {
        "type": "track",
        "description": "Monaco Street Circuit - Most prestigious F1 race"
      },
      "geometry": {
        "type": "LineString",
        "coordinates": [
          [7.42049, 43.73472],
          [7.42089, 43.73502],
          [7.42150, 43.73520],
          [7.42220, 43.73525],
          [7.42290, 43.73518],
          [7.42360, 43.73495],
          [7.42415, 43.73460],
          [7.42450, 43.73420],
          [7.42468, 43.73375],
          [7.42475, 43.73325],
          [7.42485, 43.73275],
          [7.42510, 43.73230],
          [7.42555, 43.73195],
          [7.42615, 43.73175],
          [7.42680, 43.73170],
          [7.42745, 43.73180],
          [7.42800, 43.73205],
          [7.42840, 43.73240],
          [7.42865, 43.73285],
          [7.42875, 43.73335],
          [7.42870, 43.73385],
          [7.42850, 43.73430],
          [7.42815, 43.73465],
          [7.42770, 43.73490],
          [7.42715, 43.73505],
          [7.42655, 43.73510],
          [7.42595, 43.73505],
          [7.42540, 43.73490],
          [7.42490, 43.73465],
          [7.42450, 43.73430],
          [7.42425, 43.73390],
          [7.42410, 43.73345],
          [7.42405, 43.73295],
          [7.42395, 43.73245],
          [7.42370, 43.73200],
          [7.42330, 43.73165],
          [7.42280, 43.73145],
          [7.42220, 43.73140],
          [7.42160, 43.73150],
          [7.42110, 43.73175],
          [7.42070, 43.73210],
          [7.42045, 43.73255],
          [7.42030, 43.73305],
          [7.42025, 43.73355],
          [7.42030, 43.73405],
          [7.42045, 43.73450],
          [7.42049, 43.73472]
        ]
      }
    },
    {
      "type": "Feature",
      "properties": {
        "type": "drs_detection",
        "name": "DRS Detection 1"
      },
      "geometry": {
        "type": "LineString",
        "coordinates": [
          [7.42655, 43.73510],
          [7.42595, 43.73505]
        ]
      }
    },
    {
      "type": "Feature",
      "properties": {
        "type": "drs_activation",
        "name": "DRS Zone 1 - Start/Finish Straight"
      },
      "geometry": {
        "type": "LineString",
        "coordinates": [
          [7.42049, 43.73472],
          [7.42089, 43.73502],
          [7.42150, 43.73520]
        ]
      }
    }
  ]
}
