{
  "type": "FeatureCollection",
  "properties": {
    "name": "Silverstone Circuit",
    "location": "Silverstone, United Kingdom",
    "length": 5891,
    "turns": 18,
    "lap_record": "1:27.097",
    "lap_record_holder": "Max Verstappen"
  },
  "features": [
    {
      "type": "Feature",
      "properties": {
        "type": "track",
        "description": "Silverstone Circuit - British Grand Prix, home of British motorsport"
      },
      "geometry": {
        "type": "LineString",
        "coordinates": [
          [-1.01694, 52.07083],
          [-1.01600, 52.07150],
          [-1.01480, 52.07200],
          [-1.01340, 52.07230],
          [-1.01180, 52.07245],
          [-1.01020, 52.07240],
          [-1.00870, 52.07215],
          [-1.00740, 52.07170],
          [-1.00640, 52.07110],
          [-1.00580, 52.07035],
          [-1.00560, 52.06950],
          [-1.00570, 52.06860],
          [-1.00610, 52.06780],
          [-1.00680, 52.06715],
          [-1.00780, 52.06670],
          [-1.00900, 52.06650],
          [-1.01030, 52.06655],
          [-1.01150, 52.06685],
          [-1.01250, 52.06735],
          [-1.01320, 52.06800],
          [-1.01360, 52.06880],
          [-1.01370, 52.06970],
          [-1.01350, 52.07055],
          [-1.01300, 52.07130],
          [-1.01225, 52.07190],
          [-1.01130, 52.07235],
          [-1.01020, 52.07265],
          [-1.00900, 52.07280],
          [-1.00780, 52.07280],
          [-1.00670, 52.07265],
          [-1.00580, 52.07230],
          [-1.00510, 52.07180],
          [-1.00470, 52.07115],
          [-1.00465, 52.07045],
          [-1.00490, 52.06975],
          [-1.00545, 52.06915],
          [-1.00625, 52.06870],
          [-1.00725, 52.06845],
          [-1.00835, 52.06840],
          [-1.00945, 52.06855],
          [-1.01045, 52.06890],
          [-1.01125, 52.06940],
          [-1.01180, 52.07000],
          [-1.01205, 52.07065],
          [-1.01200, 52.07130],
          [-1.01165, 52.07190],
          [-1.01105, 52.07240],
          [-1.01025, 52.07275],
          [-1.00930, 52.07295],
          [-1.00830, 52.07300],
          [-1.00730, 52.07285],
          [-1.00645, 52.07250],
          [-1.00580, 52.07200],
          [-1.00540, 52.07140],
          [-1.00530, 52.07070],
          [-1.00550, 52.07000],
          [-1.00600, 52.06940],
          [-1.00675, 52.06895],
          [-1.00770, 52.06870],
          [-1.00875, 52.06865],
          [-1.00980, 52.06880],
          [-1.01075, 52.06915],
          [-1.01150, 52.06965],
          [-1.01200, 52.07025],
          [-1.01220, 52.07090],
          [-1.01210, 52.07155],
          [-1.01170, 52.07215],
          [-1.01105, 52.07265],
          [-1.01020, 52.07300],
          [-1.00920, 52.07320],
          [-1.00815, 52.07325],
          [-1.00710, 52.07310],
          [-1.00620, 52.07275],
          [-1.00550, 52.07220],
          [-1.00510, 52.07155],
          [-1.00500, 52.07085],
          [-1.00520, 52.07015],
          [-1.00570, 52.06955],
          [-1.00645, 52.06910],
          [-1.00740, 52.06885],
          [-1.00845, 52.06880],
          [-1.00950, 52.06895],
          [-1.01045, 52.06930],
          [-1.01120, 52.06980],
          [-1.01170, 52.07040],
          [-1.01190, 52.07105],
          [-1.01180, 52.07170],
          [-1.01140, 52.07230],
          [-1.01075, 52.07280],
          [-1.00990, 52.07315],
          [-1.00890, 52.07335],
          [-1.00785, 52.07340],
          [-1.00680, 52.07325],
          [-1.00590, 52.07290],
          [-1.00520, 52.07235],
          [-1.00480, 52.07170],
          [-1.00470, 52.07100],
          [-1.00490, 52.07030],
          [-1.00540, 52.06970],
          [-1.00615, 52.06925],
          [-1.00710, 52.06900],
          [-1.00815, 52.06895],
          [-1.00920, 52.06910],
          [-1.01015, 52.06945],
          [-1.01090, 52.06995],
          [-1.01140, 52.07055],
          [-1.01160, 52.07120],
          [-1.01694, 52.07083]
        ]
      }
    },
    {
      "type": "Feature",
      "properties": {
        "type": "drs_detection",
        "name": "DRS Detection 1 - Wellington Straight"
      },
      "geometry": {
        "type": "LineString",
        "coordinates": [
          [-1.00900, 52.07280],
          [-1.00780, 52.07280]
        ]
      }
    },
    {
      "type": "Feature",
      "properties": {
        "type": "drs_activation",
        "name": "DRS Zone 1 - Hangar Straight"
      },
      "geometry": {
        "type": "LineString",
        "coordinates": [
          [-1.01694, 52.07083],
          [-1.01600, 52.07150],
          [-1.01480, 52.07200],
          [-1.01340, 52.07230]
        ]
      }
    },
    {
      "type": "Feature",
      "properties": {
        "type": "drs_detection",
        "name": "DRS Detection 2 - Club"
      },
      "geometry": {
        "type": "LineString",
        "coordinates": [
          [-1.00520, 52.07235],
          [-1.00480, 52.07170]
        ]
      }
    },
    {
      "type": "Feature",
      "properties": {
        "type": "drs_activation",
        "name": "DRS Zone 2 - Wellington Straight"
      },
      "geometry": {
        "type": "LineString",
        "coordinates": [
          [-1.00900, 52.07280],
          [-1.00780, 52.07280],
          [-1.00670, 52.07265],
          [-1.00580, 52.07230]
        ]
      }
    }
  ]
}
