{
  "type": "FeatureCollection",
  "properties": {
    "name": "Circuit de Spa-Francorchamps",
    "location": "Spa, Belgium",
    "length": 7004,
    "turns": 19,
    "lap_record": "1:46.286",
    "lap_record_holder": "Valtteri Bottas"
  },
  "features": [
    {
      "type": "Feature",
      "properties": {
        "type": "track",
        "description": "Spa-Francorchamps - Legendary high-speed circuit through Ardennes forest"
      },
      "geometry": {
        "type": "LineString",
        "coordinates": [
          [5.97138, 50.43722],
          [5.97200, 50.43780],
          [5.97280, 50.43830],
          [5.97375, 50.43870],
          [5.97480, 50.43895],
          [5.97590, 50.43905],
          [5.97700, 50.43900],
          [5.97805, 50.43880],
          [5.97900, 50.43845],
          [5.97985, 50.43800],
          [5.98055, 50.43745],
          [5.98110, 50.43680],
          [5.98150, 50.43610],
          [5.98175, 50.43535],
          [5.98185, 50.43455],
          [5.98180, 50.43375],
          [5.98160, 50.43300],
          [5.98125, 50.43230],
          [5.98075, 50.43170],
          [5.98010, 50.43120],
          [5.97935, 50.43085],
          [5.97850, 50.43065],
          [5.97760, 50.43060],
          [5.97670, 50.43070],
          [5.97585, 50.43095],
          [5.97510, 50.43135],
          [5.97445, 50.43185],
          [5.97395, 50.43245],
          [5.97360, 50.43310],
          [5.97340, 50.43380],
          [5.97335, 50.43455],
          [5.97345, 50.43530],
          [5.97370, 50.43600],
          [5.97410, 50.43665],
          [5.97465, 50.43720],
          [5.97530, 50.43765],
          [5.97605, 50.43800],
          [5.97685, 50.43825],
          [5.97770, 50.43840],
          [5.97855, 50.43845],
          [5.97940, 50.43840],
          [5.98020, 50.43825],
          [5.98095, 50.43800],
          [5.98160, 50.43765],
          [5.98215, 50.43720],
          [5.98260, 50.43670],
          [5.98295, 50.43615],
          [5.98320, 50.43555],
          [5.98335, 50.43490],
          [5.98340, 50.43425],
          [5.98335, 50.43360],
          [5.98320, 50.43295],
          [5.98295, 50.43235],
          [5.98260, 50.43180],
          [5.98215, 50.43130],
          [5.98160, 50.43090],
          [5.98095, 50.43060],
          [5.98020, 50.43040],
          [5.97940, 50.43030],
          [5.97855, 50.43030],
          [5.97770, 50.43040],
          [5.97685, 50.43060],
          [5.97605, 50.43090],
          [5.97530, 50.43130],
          [5.97465, 50.43180],
          [5.97410, 50.43235],
          [5.97370, 50.43295],
          [5.97345, 50.43360],
          [5.97335, 50.43425],
          [5.97340, 50.43490],
          [5.97360, 50.43555],
          [5.97395, 50.43615],
          [5.97445, 50.43670],
          [5.97510, 50.43720],
          [5.97585, 50.43765],
          [5.97670, 50.43800],
          [5.97760, 50.43825],
          [5.97850, 50.43840],
          [5.97935, 50.43845],
          [5.98010, 50.43840],
          [5.98075, 50.43825],
          [5.98125, 50.43800],
          [5.98160, 50.43765],
          [5.98180, 50.43725],
          [5.98185, 50.43680],
          [5.98175, 50.43635],
          [5.98150, 50.43590],
          [5.98110, 50.43550],
          [5.98055, 50.43520],
          [5.97985, 50.43500],
          [5.97900, 50.43490],
          [5.97805, 50.43490],
          [5.97700, 50.43500],
          [5.97590, 50.43520],
          [5.97480, 50.43550],
          [5.97375, 50.43590],
          [5.97280, 50.43635],
          [5.97200, 50.43680],
          [5.97138, 50.43722]
        ]
      }
    },
    {
      "type": "Feature",
      "properties": {
        "type": "drs_detection",
        "name": "DRS Detection 1 - Rivage"
      },
      "geometry": {
        "type": "LineString",
        "coordinates": [
          [5.97770, 50.43840],
          [5.97855, 50.43845]
        ]
      }
    },
    {
      "type": "Feature",
      "properties": {
        "type": "drs_activation",
        "name": "DRS Zone 1 - Kemmel Straight"
      },
      "geometry": {
        "type": "LineString",
        "coordinates": [
          [5.97940, 50.43840],
          [5.98020, 50.43825],
          [5.98095, 50.43800],
          [5.98160, 50.43765],
          [5.98215, 50.43720]
        ]
      }
    },
    {
      "type": "Feature",
      "properties": {
        "type": "drs_detection",
        "name": "DRS Detection 2 - Blanchimont"
      },
      "geometry": {
        "type": "LineString",
        "coordinates": [
          [5.97585, 50.43765],
          [5.97670, 50.43800]
        ]
      }
    },
    {
      "type": "Feature",
      "properties": {
        "type": "drs_activation",
        "name": "DRS Zone 2 - Start/Finish Straight"
      },
      "geometry": {
        "type": "LineString",
        "coordinates": [
          [5.97138, 50.43722],
          [5.97200, 50.43780],
          [5.97280, 50.43830],
          [5.97375, 50.43870]
        ]
      }
    }
  ]
}
